ONEWEB-0320             
1 49190U 21083E   26198.89215225 -.00000021  00000+0 -85328-4 0  9991
2 49190  87.9192 329.3544 0001958  99.3525 260.7828 13.18687561234027
ONEWEB-0321             
1 49191U 21083F   26198.65526891 -.00000036  00000+0 -12033-3 0  9998
2 49191  87.9181 268.3633 0002154 104.7539 255.3833 13.20773066240855
ONEWEB-0322             
1 49192U 21083G   26198.85497753  .00000297  00000+0  77945-3 0  9995
2 49192  87.8978 314.1324 0002089 111.5894 248.5457 13.13470013234940
ONEWEB-0324             
1 49193U 21083H   26198.86519319  .00000007  00000+0 -14626-4 0  9998
2 49193  87.9201 329.3508 0002074  94.8580 265.2789 13.18686531234046
ONEWEB-0325             
1 49194U 21083J   26198.86855474  .00000020  00000+0  17111-4 0  9990
2 49194  87.9191 329.3555 0001850  99.3063 260.8279 13.18687172234052
ONEWEB-0326             
1 49195U 21083K   26198.88388794  .00000057  00000+0  11301-3 0  9993
2 49195  87.9199 329.3527 0001645  94.3824 265.7496 13.18686201234048
ONEWEB-0327             
1 49196U 21083L   26198.88360829  .00000000  00000+0 -33600-4 0  9999
2 49196  87.9191 329.3546 0001490  96.7810 263.3492 13.18686106234067
ONEWEB-0328             
1 49197U 21083M   26198.76864308  .00000287  00000+0  75107-3 0  9991
2 49197  87.8989 314.1257 0002056  96.8026 263.3337 13.13469842234915
ONEWEB-0331             
1 49198U 21083N   26198.87699509  .00000028  00000+0  37775-4 0  9996
2 49198  87.9201 329.3481 0001684  89.7559 270.3766 13.18684309234050
ONEWEB-0333             
1 49199U 21083P   26198.83974076  .00000218  00000+0  56100-3 0  9991
2 49199  87.8984 314.1347 0001892 100.0139 260.1204 13.13470184234933
ONEWEB-0334             
1 49200U 21083Q   26198.89684484  .00000040  00000+0  67238-4 0  9999
2 49200  87.9185 268.3254 0002543 114.5265 245.6133 13.20769338240847
ONEWEB-0335             
1 49201U 21083R   26198.83466030  .00000173  00000+0  43868-3 0  9998
2 49201  87.8980 314.1333 0001819  95.9739 264.1597 13.13469283234943
ONEWEB-0336             
1 49202U 21083S   26198.80587564 -.00000305  00000+0 -87113-3 0  9992
2 49202  87.8978 314.1340 0001824  91.8796 268.2542 13.13468678234934
ONEWEB-0337             
1 49203U 21083T   26198.81590463 -.00000282  00000+0 -80624-3 0  9990
2 49203  87.8978 314.1376 0002034  94.6161 265.5201 13.13469408234939
ONEWEB-0338             
1 49204U 21083U   26198.49533233  .00000053  00000+0  98487-4 0  9998
2 49204  87.9182 268.4073 0002159 106.6384 253.4986 13.20771202240818
ONEWEB-0339             
1 49205U 21083V   26198.82450079 -.00000078  00000+0 -24777-3 0  9991
2 49205  87.8973 314.1290 0002176 105.6084 254.5286 13.13470231234910
